NPSAT1                  
1 44340U 19036B   26137.12041035  .00003701  00000+0  51069-3 0  9993
2 44340  23.9989  60.0404 0007705 217.5371 142.4587 14.74268286367900
FORMOSAT 7-3            
1 44343U 19036E   26136.98735475  .00003272  00000+0  17776-3 0  9997
2 44343  23.9998  33.2324 0000410 271.7557  88.2899 15.09546683378522
FORMOSAT 7-1            
1 44349U 19036L   26136.97371211  .00001661  00000+0  11713-3 0  9991
2 44349  23.9974 242.8052 0000838 144.8649 215.1907 14.96367748379973
FORMOSAT 7-4            
1 44350U 19036M   26137.12945697  .00001750  00000+0  12484-3 0  9991
2 44350  23.9987 303.8590 0001019 171.7485 188.3033 14.96362310379413
FORMOSAT 7-2            
1 44351U 19036N   26136.95176619  .00001755  00000+0  12529-3 0  9997
2 44351  23.9992 359.3693 0000600 164.7546 195.2973 14.96358708378904
FORMOSAT 7-6            
1 44353U 19036Q   26137.21840933  .00001489  00000+0  10227-3 0  9993
2 44353  23.9962 178.3900 0001452  98.5307 261.5358 14.96369004377171
FORMOSAT 7-5            
1 44358U 19036V   26137.06238994  .00001612  00000+0  11292-3 0  9990
2 44358  23.9975 118.1893 0000538 144.0420 216.0117 14.96368539377686
METEOR-M2 2             
1 44387U 19038A   26137.19576854 -.00000068  00000+0 -97035-5 0  9995
2 44387  98.9131 124.0259 0002352  95.6955 264.4492 14.24356845356886
GLOBAL-4                
1 44499U 19054E   26137.14127118  .00040788  00000+0  47013-3 0  9997
2 44499  45.0077  55.1139 0003906 142.8622 217.2545 15.61318100375504
ZY-1 02D                
1 44528U 19059A   26137.19017095  .00000120  00000+0  56249-4 0  9990
2 44528  98.3208 199.7694 0001154 154.5583 205.5660 14.35449626349893
TAURUS-1 (JINNIUZUO 1)  
1 44530U 19059C   26137.17635669  .00002438  00000+0  39953-3 0  9990
2 44530  98.6391 300.0937 0009262  56.4825 303.7264 14.71730614354084
ZHUHAI-1 03B            
1 44536U 19060C   26137.19398197  .00023035  00000+0  37948-3 0  9990
2 44536  97.5499 293.3376 0009565  76.0633 284.1682 15.52282850371516
ZHUHAI-1 03C            
1 44537U 19060D   26137.17190437  .00379962  61269-4  86258-3 0  9996
2 44537  97.5431 306.1581 0005439 301.0571  59.0171 15.97498328372300
ZHUHAI-1 03D            
1 44538U 19060E   26137.14732182  .00023823  00000+0  45784-3 0  9995
2 44538  97.5359 285.6832 0007994  63.2014 297.0052 15.47909253371273
ZHUHAI-1 03E            
1 44539U 19060F   26137.19489806  .00013506  00000+0  34034-3 0  9996
2 44539  97.5576 286.1012 0007158 129.5213 230.6667 15.39990479370994
GAOFEN-7                
1 44703U 19072A   26137.15614429  .00003061  00000+0  13914-3 0  9998
2 44703  97.2445 199.7856 0017708 140.5659 219.6869 15.21342226362920
JILIN-1 GAOFEN 2A       
1 44777U 19075A   26137.18299532  .00010522  00000+0  27971-3 0  9997
2 44777  97.4969 220.2704 0006647 180.8553 179.2681 15.38415519360112
NINGXIA-1 1             
1 44779U 19076A   26137.18436080 -.00000076  00000+0  35366-4 0  9993
2 44779  45.0067 318.3977 0010962   8.2102 351.8910 14.02035779333503
NINGXIA-1 5             
1 44783U 19076E   26137.19871302 -.00000084  00000+0  29736-4 0  9992
2 44783  45.0064 317.6876 0010963 357.9794   2.0995 14.02083478333425
KL-ALPHA A              
1 44785U 19077A   26137.20297199  .00000132  00000+0  17050-3 0  9991
2 44785  88.9267 225.9497 0010687 188.3150 171.7829 13.56039683321539
CARTOSAT-3              
1 44804U 19081A   26137.20147670  .00003343  00000+0  16183-3 0  9999
2 44804  97.4326 199.5619 0011027 257.8432 102.1567 15.19217903358764
JILIN-1 GAOFEN 2B       
1 44836U 19086A   26137.15121633  .00005253  00000+0  24401-3 0  9998
2 44836  97.4892 209.3439 0015583  71.6518 288.6410 15.20331006355773
TIANQIN 1 (CAS-6)       
1 44879U 19093A   26137.17436285  .00001866  00000+0  17458-3 0  9997
2 44879  97.7802 221.2426 0012050 151.1780 209.0109 14.95267504347410
ETRSS-1                 
1 44880U 19093B   26137.18984750  .00004756  00000+0  43205-3 0  9995
2 44880  97.7828 221.6907 0012357 150.0151 210.1780 14.95683112347424
TIANYAN 01              
1 44881U 19093C   26137.14763811  .00000506  00000+0  63256-4 0  9993
2 44881  97.7542 210.1358 0013363 183.0346 177.0791 14.86462437346800
TIANYAN 02              
1 44882U 19093D   26137.20346098  .00005714  00000+0  40819-3 0  9990
2 44882  97.7928 231.7090 0015085 126.7384 233.5229 15.04806679347952
CBERS 4A                
1 44883U 19093E   26137.15842981  .00001127  00000+0  14962-3 0  9991
2 44883  97.7513 205.3904 0000581 328.1268  31.9910 14.81654022346489
WEILAI 1R               
1 44884U 19093F   26137.17889626  .00004967  00000+0  39953-3 0  9993
2 44884  97.7842 227.0309 0015913 131.6728 228.5861 15.00353858347775
