OBJECT_NAME,OBJECT_ID,EPOCH,MEAN_MOTION,ECCENTRICITY,INCLINATION,RA_OF_ASC_NODE,ARG_OF_PERICENTER,MEAN_ANOMALY,EPHEMERIS_TYPE,CLASSIFICATION_TYPE,NORAD_CAT_ID,ELEMENT_SET_NO,REV_AT_EPOCH,BSTAR,MEAN_MOTION_DOT,MEAN_MOTION_DDOT
NPSAT1,2019-036B,2026-05-17T02:53:23.454240,14.74268286,.0007705,23.9989,60.0404,217.5371,142.4587,0,U,44340,999,36790,.51069E-3,.3701E-4,0
FORMOSAT 7-3,2019-036E,2026-05-16T23:41:47.450400,15.09546683,.000041,23.9998,33.2324,271.7557,88.2899,0,U,44343,999,37852,.17776E-3,.3272E-4,0
FORMOSAT 7-1,2019-036L,2026-05-16T23:22:08.726304,14.96367748,.0000838,23.9974,242.8052,144.8649,215.1907,0,U,44349,999,37997,.11713E-3,.1661E-4,0
FORMOSAT 7-4,2019-036M,2026-05-17T03:06:25.082208,14.96362310,.0001019,23.9987,303.8590,171.7485,188.3033,0,U,44350,999,37941,.12484E-3,.175E-4,0
FORMOSAT 7-2,2019-036N,2026-05-16T22:50:32.598816,14.96358708,.00006,23.9992,359.3693,164.7546,195.2973,0,U,44351,999,37890,.12529E-3,.1755E-4,0
FORMOSAT 7-6,2019-036Q,2026-05-17T05:14:30.566112,14.96369004,.0001452,23.9962,178.3900,98.5307,261.5358,0,U,44353,999,37717,.10227E-3,.1489E-4,0
FORMOSAT 7-5,2019-036V,2026-05-17T01:29:50.490816,14.96368539,.0000538,23.9975,118.1893,144.0420,216.0117,0,U,44358,999,37768,.11292E-3,.1612E-4,0
METEOR-M2 2,2019-038A,2026-05-17T04:41:54.401856,14.24356845,.0002352,98.9131,124.0259,95.6955,264.4492,0,U,44387,999,35688,-.97035E-5,-.68E-6,0
GLOBAL-4,2019-054E,2026-05-17T03:23:25.829952,15.61318100,.0003906,45.0077,55.1139,142.8622,217.2545,0,U,44499,999,37550,.47013E-3,.40788E-3,0
ZY-1 02D,2019-059A,2026-05-17T04:33:50.770080,14.35449626,.0001154,98.3208,199.7694,154.5583,205.5660,0,U,44528,999,34989,.56249E-4,.12E-5,0
TAURUS-1 (JINNIUZUO 1),2019-059C,2026-05-17T04:13:57.218016,14.71730614,.0009262,98.6391,300.0937,56.4825,303.7264,0,U,44530,999,35408,.39953E-3,.2438E-4,0
ZHUHAI-1 03B,2019-060C,2026-05-17T04:39:20.042208,15.52282850,.0009565,97.5499,293.3376,76.0633,284.1682,0,U,44536,999,37151,.37948E-3,.23035E-3,0
ZHUHAI-1 03C,2019-060D,2026-05-17T04:07:32.537568,15.97498328,.0005439,97.5431,306.1581,301.0571,59.0171,0,U,44537,999,37230,.86258E-3,.379962E-2,.61269E-4
ZHUHAI-1 03D,2019-060E,2026-05-17T03:32:08.605248,15.47909253,.0007994,97.5359,285.6832,63.2014,297.0052,0,U,44538,999,37127,.45784E-3,.23823E-3,0
ZHUHAI-1 03E,2019-060F,2026-05-17T04:40:39.192384,15.39990479,.0007158,97.5576,286.1012,129.5213,230.6667,0,U,44539,999,37099,.34034E-3,.13506E-3,0
GAOFEN-7,2019-072A,2026-05-17T03:44:50.866656,15.21342226,.0017708,97.2445,199.7856,140.5659,219.6869,0,U,44703,999,36292,.13914E-3,.3061E-4,0
JILIN-1 GAOFEN 2A,2019-075A,2026-05-17T04:23:30.795648,15.38415519,.0006647,97.4969,220.2704,180.8553,179.2681,0,U,44777,999,36011,.27971E-3,.10522E-3,0
NINGXIA-1 1,2019-076A,2026-05-17T04:25:28.773120,14.02035779,.0010962,45.0067,318.3977,8.2102,351.8910,0,U,44779,999,33350,.35366E-4,-.76E-6,0
NINGXIA-1 5,2019-076E,2026-05-17T04:46:08.804928,14.02083478,.0010963,45.0064,317.6876,357.9794,2.0995,0,U,44783,999,33342,.29736E-4,-.84E-6,0
KL-ALPHA A,2019-077A,2026-05-17T04:52:16.779936,13.56039683,.0010687,88.9267,225.9497,188.3150,171.7829,0,U,44785,999,32153,.1705E-3,.132E-5,0
CARTOSAT-3,2019-081A,2026-05-17T04:50:07.586880,15.19217903,.0011027,97.4326,199.5619,257.8432,102.1567,0,U,44804,999,35876,.16183E-3,.3343E-4,0
JILIN-1 GAOFEN 2B,2019-086A,2026-05-17T03:37:45.090912,15.20331006,.0015583,97.4892,209.3439,71.6518,288.6410,0,U,44836,999,35577,.24401E-3,.5253E-4,0
TIANQIN 1 (CAS-6),2019-093A,2026-05-17T04:11:04.950240,14.95267504,.001205,97.7802,221.2426,151.1780,209.0109,0,U,44879,999,34741,.17458E-3,.1866E-4,0
ETRSS-1,2019-093B,2026-05-17T04:33:22.824000,14.95683112,.0012357,97.7828,221.6907,150.0151,210.1780,0,U,44880,999,34742,.43205E-3,.4756E-4,0
TIANYAN 01,2019-093C,2026-05-17T03:32:35.932704,14.86462437,.0013363,97.7542,210.1358,183.0346,177.0791,0,U,44881,999,34680,.63256E-4,.506E-5,0
TIANYAN 02,2019-093D,2026-05-17T04:52:59.028672,15.04806679,.0015085,97.7928,231.7090,126.7384,233.5229,0,U,44882,999,34795,.40819E-3,.5714E-4,0
CBERS 4A,2019-093E,2026-05-17T03:48:08.335584,14.81654022,.0000581,97.7513,205.3904,328.1268,31.9910,0,U,44883,999,34648,.14962E-3,.1127E-4,0
WEILAI 1R,2019-093F,2026-05-17T04:17:36.636864,15.00353858,.0015913,97.7842,227.0309,131.6728,228.5861,0,U,44884,999,34777,.39953E-3,.4967E-4,0
